1 23118U 93073E   18271.16636514  .00000060  00000-0  00000+0 0  9993
2 23118  15.0951  10.7509 0064690  33.0735  43.4268  0.99993653 88619
